      2.10          N: GNSS NAV DATA                        RINEX VERSION / TYPE
fic2rin                                 03/28/2021 00:17:20 PGM / RUN BY / DATE
                                                            END OF HEADER
 1 21  3 27 22  0  0.0 7.310379296541e-04-9.208633855451e-12 0.000000000000e+00
    8.900000000000e+01 1.077187500000e+02 4.240890935844e-09 9.928508823502e-01
    5.843117833138e-06 1.058738795109e-02 8.491799235344e-06 5.153688041687e+03
    5.976000000000e+05-2.793967723846e-08-2.313280202343e+00 1.192092895508e-07
    9.837107706107e-01 2.276250000000e+02 8.234793224763e-01-8.226771249473e-09
    4.260891768959e-10 1.000000000000e+00 2.150000000000e+03 0.000000000000e+00
    3.400000000000e+00 0.000000000000e+00 4.656612873077e-09 8.900000000000e+01
    5.904000000000e+05 4.000000000000e+00
 5 21  3 27 22  0  0.0-3.742100670934e-05-1.136868377216e-12 0.000000000000e+00
    7.500000000000e+01-5.018750000000e+01 5.045210153254e-09-2.518225310009e+00
   -2.581626176834e-06 6.009376607835e-03 2.386048436165e-06 5.153839866638e+03
    5.976000000000e+05 8.009374141693e-08-1.310853538083e+00-5.960464477539e-08
    9.552448146951e-01 3.310312500000e+02 8.792609271926e-01-8.551784787591e-09
   -2.578678840896e-10 1.000000000000e+00 2.150000000000e+03 0.000000000000e+00
    2.400000000000e+00 0.000000000000e+00-1.117587089539e-08 7.500000000000e+01
    5.904000000000e+05 4.000000000000e+00
 3 21  3 27 22  0  0.0-1.201718114316e-04-1.080024958355e-11 0.000000000000e+00
    1.020000000000e+02-5.562500000000e+01 4.912347476133e-09-1.056450036013e-01
   -2.918764948845e-06 3.349164500833e-03 2.501532435417e-06 5.153622352600e+03
    5.976000000000e+05 1.303851604462e-08-1.274797455540e+00 8.940696716309e-08
    9.683061774047e-01 3.327187500000e+02 8.270605342310e-01-8.637145486064e-09
   -3.889447725395e-10 1.000000000000e+00 2.150000000000e+03 0.000000000000e+00
    2.400000000000e+00 0.000000000000e+00 1.862645149231e-09 1.020000000000e+02
    5.904000000000e+05 4.000000000000e+00
 6 21  3 27 22  0  0.0 3.271736204624e-06 2.273736754432e-12 0.000000000000e+00
    5.100000000000e+01 9.837500000000e+01 4.154101606435e-09 1.268331432238e+00
    5.006790161133e-06 2.327913069166e-03 8.124858140945e-06 5.153730545044e+03
    5.976000000000e+05-1.862645149231e-08-2.321532910901e+00-5.587935447693e-08
    9.831931492325e-01 2.314062500000e+02-1.019988261417e+00-7.954259898281e-09
    4.018024509706e-10 1.000000000000e+00 2.150000000000e+03 0.000000000000e+00
    2.400000000000e+00 0.000000000000e+00 3.725290298462e-09 5.100000000000e+01
    5.904000000000e+05 4.000000000000e+00
 7 21  3 27 22  0  0.0 1.037470065057e-04 1.205080479849e-11 0.000000000000e+00
    6.600000000000e+01 8.315625000000e+01 4.892703800752e-09 3.946286121286e-01
    4.472211003304e-06 1.462483755313e-02 8.458271622658e-06 5.153592241287e+03
    5.976000000000e+05-1.024454832077e-07 8.276032841530e-01 2.086162567139e-07
    9.520534457389e-01 2.141250000000e+02-2.344969003360e+00-8.496425338791e-09
    6.275261389825e-10 1.000000000000e+00 2.150000000000e+03 0.000000000000e+00
    2.400000000000e+00 0.000000000000e+00-1.117587089539e-08 6.600000000000e+01
    5.904000000000e+05 4.000000000000e+00
 4 21  3 27 22  0  0.0-1.886617392302e-04-2.160049916711e-12 0.000000000000e+00
    2.340000000000e+02-6.937500000000e+01 4.116242886610e-09 2.670672715873e+00
   -3.553926944733e-06 1.140400534496e-03 1.399591565132e-05 5.153777580261e+03
    5.976000000000e+05 1.862645149231e-08-1.943563369101e-01-9.313225746155e-09
    9.608518856464e-01 1.089687500000e+02-2.978585062389e+00-7.859613098719e-09
   -2.217949529358e-10 1.000000000000e+00 2.150000000000e+03 0.000000000000e+00
    2.400000000000e+00 0.000000000000e+00-4.190951585770e-09 2.340000000000e+02
    5.904000000000e+05 4.000000000000e+00
29 21  3 27 22  0  0.0-3.195982426405e-04-6.821210263297e-12 0.000000000000e+00
    1.700000000000e+01-6.625000000000e+00 3.889804883130e-09-2.945258416326e+00
   -3.091990947723e-07 1.655002939515e-03 1.344643533230e-05 5.153668231964e+03
    5.976000000000e+05 9.313225746155e-09 2.986084545150e+00 6.519258022308e-08
    9.846668577956e-01 1.353125000000e+02 2.110872463180e+00-7.596745006351e-09
   -2.021512775550e-10 1.000000000000e+00 2.150000000000e+03 0.000000000000e+00
    2.400000000000e+00 0.000000000000e+00-1.024454832077e-08 1.700000000000e+01
    5.904000000000e+05 4.000000000000e+00
16 21  3 27 22  0  0.0-3.006025217474e-04-5.798028723802e-12 0.000000000000e+00
    5.800000000000e+01-5.828125000000e+01 4.775913221670e-09-2.191572795644e+00
   -3.350898623466e-06 1.226117112674e-02 4.472211003304e-06 5.153662885666e+03
    5.976000000000e+05 1.769512891769e-07 1.956822165772e+00-1.061707735062e-07
    9.740788594601e-01 2.969375000000e+02 6.676213981396e-01-8.266772915703e-09
   -2.264380034803e-10 1.000000000000e+00 2.150000000000e+03 0.000000000000e+00
    2.400000000000e+00 0.000000000000e+00-1.024454832077e-08 5.800000000000e+01
    5.904000000000e+05 4.000000000000e+00
10 21  3 27 22  0  0.0-8.991640061140e-05-7.844391802792e-12 0.000000000000e+00
    3.200000000000e+01-5.818750000000e+01 4.784127849557e-09-1.065683888617e+00
   -3.112480044365e-06 6.543106748722e-03 3.011897206306e-06 5.153665618896e+03
    5.976000000000e+05 1.378357410431e-07-1.277708478190e+00-1.117587089539e-08
    9.681957899952e-01 3.260625000000e+02-2.567262619536e+00-8.489639341841e-09
   -4.175173912752e-10 1.000000000000e+00 2.150000000000e+03 0.000000000000e+00
    2.400000000000e+00 0.000000000000e+00 2.328306436539e-09 3.200000000000e+01
    5.904000000000e+05 4.000000000000e+00
15 21  3 27 22  0  0.0-1.602019183338e-04 2.614797267597e-12 0.000000000000e+00
    2.000000000000e+01-8.471875000000e+01 4.844130348901e-09 2.234855975842e+00
   -4.526227712631e-06 1.307837641798e-02 1.166202127934e-05 5.153596710205e+03
    5.976000000000e+05-1.490116119385e-08-3.420929593049e-01-2.551823854446e-07
    9.292294528337e-01 1.391875000000e+02 9.724754280993e-01-8.151410967557e-09
   -2.903692379014e-10 1.000000000000e+00 2.150000000000e+03 0.000000000000e+00
    2.400000000000e+00 0.000000000000e+00-1.071020960808e-08 2.000000000000e+01
    5.904000000000e+05 4.000000000000e+00
31 21  3 27 22  0  0.0-1.081386581063e-04-2.273736754432e-12 0.000000000000e+00
    4.200000000000e+01 8.656250000000e+01 4.796628370253e-09-1.388523340656e-01
    4.746019840240e-06 9.956139489077e-03 7.966533303261e-06 5.153758695602e+03
    5.976000000000e+05 1.601874828339e-07 8.444115355527e-01 5.215406417847e-08
    9.563687527116e-01 2.217187500000e+02 2.547057058350e-01-8.462138196308e-09
    7.446738757988e-10 1.000000000000e+00 2.150000000000e+03 0.000000000000e+00
    2.400000000000e+00 0.000000000000e+00-1.303851604462e-08 4.200000000000e+01
    5.904000000000e+05 4.000000000000e+00
22 21  3 27 22  0  0.0-6.511518731713e-04 8.412825991400e-12 0.000000000000e+00
    3.200000000000e+01-3.856250000000e+01 5.695237229491e-09 2.178633017519e+00
   -1.989305019379e-06 7.063147495501e-03 1.193955540657e-06 5.153569261551e+03
    5.976000000000e+05 6.891787052155e-08-1.372176462897e+00 7.450580596924e-08
    9.337584555648e-01 3.387187500000e+02-1.009145387642e+00-8.910013994990e-09
   -3.464430021702e-10 1.000000000000e+00 2.150000000000e+03 0.000000000000e+00
    2.400000000000e+00 0.000000000000e+00-1.816079020500e-08 3.200000000000e+01
    5.904000000000e+05 4.000000000000e+00
12 21  3 27 22  0  0.0-1.992611214519e-05-5.229594535194e-12 0.000000000000e+00
    6.900000000000e+01-4.743750000000e+01 4.838415825154e-09-3.263526161593e-01
   -2.497807145119e-06 8.486014790833e-03 4.699453711510e-06 5.153763545990e+03
    5.976000000000e+05-7.264316082001e-08 1.938039061277e+00 4.842877388000e-08
    9.739697111422e-01 3.026875000000e+02 1.191015964516e+00-8.496425338791e-09
   -2.850118718885e-10 1.000000000000e+00 2.150000000000e+03 0.000000000000e+00
    2.400000000000e+00 0.000000000000e+00-1.257285475731e-08 6.900000000000e+01
    5.904000000000e+05 4.000000000000e+00
 9 21  3 27 22  0  0.0-3.345031291246e-04-2.955857780762e-12 0.000000000000e+00
    7.900000000000e+01-8.465625000000e+01 4.230176203818e-09-2.625952773108e+00
   -4.312023520470e-06 1.833520014770e-03 1.352466642857e-05 5.153555301666e+03
    5.976000000000e+05 6.891787052155e-08-2.446818979489e-01-6.705522537231e-08
    9.536590963464e-01 1.160000000000e+02 1.829013830385e+00-7.896400345341e-09
   -3.139416483584e-10 1.000000000000e+00 2.150000000000e+03 0.000000000000e+00
    2.400000000000e+00 0.000000000000e+00 1.396983861923e-09 7.900000000000e+01
    5.904000000000e+05 4.000000000000e+00
 8 21  3 27 22  0  0.0-1.534447073936e-05-1.477928890381e-12 0.000000000000e+00
    8.700000000000e+01-3.350000000000e+01 4.189103064386e-09-3.074654164122e+00
   -1.683831214905e-06 6.321324501187e-03 1.461990177631e-05 5.153580785751e+03
    5.976000000000e+05-7.264316082001e-08 2.896724963582e+00-3.166496753693e-08
    9.680818681756e-01 1.007500000000e+02 1.297185699277e-02-7.686748755368e-09
   -3.728726745007e-10 1.000000000000e+00 2.150000000000e+03 0.000000000000e+00
    3.400000000000e+00 0.000000000000e+00 5.122274160385e-09 8.700000000000e+01
    5.904000000000e+05 4.000000000000e+00
27 21  3 27 22  0  0.0-1.019970513880e-04-7.048583938740e-12 0.000000000000e+00
    7.900000000000e+01-2.290625000000e+01 3.911948662650e-09-3.118767325040e+00
   -1.301988959312e-06 9.307124419138e-03 1.461803913116e-05 5.153687952042e+03
    5.976000000000e+05-7.450580596924e-08 2.913464292522e+00-1.937150955200e-07
    9.766511595210e-01 1.050625000000e+02 5.951786164927e-01-7.562457863868e-09
   -3.578720496645e-10 1.000000000000e+00 2.150000000000e+03 0.000000000000e+00
    2.400000000000e+00 0.000000000000e+00 1.862645149231e-09 7.900000000000e+01
    5.904000000000e+05 4.000000000000e+00
